STARLINK-3725           
1 52123U 22029AM  22102.50001157  .00033654  00000+0  24366-3 0  9998
2 52123  53.2173  23.7801 0001274 102.0273  46.0936 15.73159824  5082
STARLINK-3684           
1 52124U 22029AN  22102.50001157  .00039165  00000+0  28263-3 0  9992
2 52124  53.2174  23.7842 0001483 109.5745  36.8954 15.73161481  5086
STARLINK-3727           
1 52125U 22029AP  22102.16667824  .00090549  00000+0  64522-3 0  9995
2 52125  53.2174  25.4296 0001170 101.2087 318.6645 15.73106600  5035
STARLINK-3732           
1 52126U 22029AQ  22102.50001157  .00035789  00000+0  25874-3 0  9997
2 52126  53.2175  23.7819 0001446 110.3998  37.1596 15.73162736  5082
STARLINK-3715           
1 52127U 22029AR  22102.16667824  .00089604  00000+0  63916-3 0  9993
2 52127  53.2176  25.4271 0001098 105.8282 315.1966 15.73086167  5031
STARLINK-3719           
1 52128U 22029AS  22098.50001157  .00291571  44918-4  69456-3 0  9991
2 52128  53.2141  41.4431 0005980 341.9968 135.9625 15.96150289  3724
STARLINK-3661           
1 52129U 22029AT  22102.50001157  .00034374  00000+0  24873-3 0  9997
2 52129  53.2174  23.7740 0001364 101.8656  49.1111 15.73162093  5084
STARLINK-3710           
1 52130U 22029AU  22100.16667824  .00324514  52784-4  80030-3 0  9994
2 52130  53.2153  33.0931 0006501 348.9826 264.9904 15.95486784  3737
STARLINK-3711           
1 52131U 22029AV  22102.16667824  .00091160  00000+0  64993-3 0  9994
2 52131  53.2175  25.4233 0001474  99.0078 323.7711 15.73090803  5033
STARLINK-3718           
1 52132U 22029AW  22102.16667824  .00090733  00000+0  64732-3 0  9991
2 52132  53.2175  25.4264 0000793 118.5088 303.1549 15.73077262  5034
STARLINK-3707           
1 52133U 22029AX  22102.50001157  .00035198  00000+0  25466-3 0  9996
2 52133  53.2174  23.7699 0001395 107.9901  44.6917 15.73153182  5089
STARLINK-3721           
1 52134U 22029AY  22102.16667824  .00091937  00000+0  65489-3 0  9990
2 52134  53.2176  25.4230 0001150 106.6303 316.6815 15.73108337  5039
STARLINK-3729           
1 52135U 22029AZ  22102.16667824  .00088603  00000+0  63174-3 0  9996
2 52135  53.2176  25.4169 0001104 102.1310 323.5161 15.73101276  5024
STARLINK-3720           
1 52136U 22029BA  22102.50001157 -.00030542  00000+0 -21085-3 0  9992
2 52136  53.2175  23.7717 0001500 107.2080  44.9736 15.73540567  5071
STARLINK-3733           
1 52137U 22029BB  22101.91667824 -.00073197  00000+0 -52288-3 0  9998
2 52137  53.2177  26.6511 0001149  96.4283 353.1853 15.73146204  3704
STARLINK-3723           
1 52138U 22029BC  22102.50001157 -.00266988  00000+0 -19466-2 0  9998
2 52138  53.2175  23.7676 0001223 123.2931  30.8443 15.73346268  5084
STARLINK-3730           
1 52139U 22029BD  22101.91667824 -.00095537  00000+0 -68439-3 0  9997
2 52139  53.2168  26.2785 0001412 111.9730 158.9168 15.73187792  3705
STARLINK-3682           
1 52140U 22029BE  22102.16667824  .00091652  00000+0  65332-3 0  9998
2 52140  53.2177  25.4142 0001735  99.8947 327.4249 15.73092589  5026
FALCON 9 DEB            
1 52141U 22029BF  22102.17879385  .00401083  79482-4  77844-3 0  9996
2 52141  53.2143  22.6545 0006165 321.9355  38.1240 15.99764835  3832
FALCON 9 DEB            
1 52142U 22029BG  22102.05193090  .00357906  64634-4  72370-3 0  9992
2 52142  53.2137  23.2862 0006069 349.4122  10.6781 15.99060553  3814
FALCON 9 DEB            
1 52143U 22029BH  22102.03120861  .00424171  89763-4  74942-3 0  9993
2 52143  53.2108  23.1486 0003228 309.2140  50.8605 16.01414471  3819
FALCON 9 DEB            
1 52144U 22029BJ  22102.08232457  .00540985  14627-3  84521-3 0  9996
2 52144  53.2143  22.7590 0002108 306.5868  53.4971 16.03484130  3820
MERIDIAN 10             
1 52145U 22030A   22101.12648757  .00001563  00000+0  52658-1 0  9991
2 52145  62.9063 319.3434 7222299 269.8177 288.9293  1.98385441   380
FREGAT R/B              
1 52146U 22030B   22101.57464826 -.00001233  00000+0 -55499-2 0  9997
2 52146  62.8238 319.1993 7291241 269.7094  14.6441  2.00094443   430
IHI-SAT                 
1 52147U 98067TJ  22101.88440085  .00030826  00000+0  51423-3 0  9998
2 52147  51.6417 304.8192 0003240  51.6424 308.4857 15.51690011  2964
KITSUNE                 
1 52148U 98067TK  22102.54185774  .00026175  00000+0  44857-3 0  9999
2 52148  51.6449 301.6213 0003055  40.4315   0.7976 15.51022552  3007
2022-031A               
1 52150U 22031A   22102.55321630  .00002371  00000+0  24820-3 0  9994
2 52150  97.7965 275.8076 0013009 211.2325 148.8121 14.90510571  2103
2022-031B               
1 52151U 22031B   22102.55166085  .00000614  00000+0  68276-4 0  9998
2 52151  97.7853 275.7911 0011837 216.9121 143.1284 14.90677778  2101
CZ-6A R/B               
1 52152U 22031C   22102.48751027  .00001676  00000+0  14797-3 0  9994
2 52152  97.7837 275.8484 0027271 320.2050  39.7171 14.97500249  2109
2022-032A               
1 52153U 22032A   22102.44089399  .00001746  00000+0  18623-3 0  9998
2 52153  97.7955 152.4375 0011157 212.2709 147.7825 14.90096529  1982
2022-032C               
1 52155U 22032C   22102.49513327  .00002169  00000+0  22028-3 0  9992
2 52155  97.8016 152.5290 0015211 242.0589 117.9094 14.91806467  1991
2022-032D               
1 52156U 22032D   22102.49484499  .00003927  00000+0  39345-3 0  9993
2 52156  97.7879 152.5082 0015180 242.7639 117.2035 14.91862912  2003
2022-033A               
1 52157U 22033A   22101.77239871  .00001061  00000+0  16786-3 0  9998
2 52157  97.9483 184.9074 0012501 219.8205 140.2087 14.74273811  1507
2022-033B               
1 52158U 22033B   22101.83650194  .00001263  00000+0  19589-3 0  9999
2 52158  97.9492 184.9803 0011864 230.9473 129.0681 14.74824505  1518
2022-033C               
1 52159U 22033C   22101.83394094  .00000416  00000+0  69416-4 0  9998
2 52159  97.9781 184.9964 0006819 243.9308 116.1199 14.74972948  1519
2022-033D               
1 52160U 22033D   22102.19276885  .00009996  00000+0  46173-3 0  9993
2 52160  97.3897 184.8374 0008997 258.8303 101.1921 15.20355359  1606
ARCSAT-1                
1 52161U 22033E   22102.19244806  .00005843  00000+0  27140-3 0  9992
2 52161  97.3884 184.8342 0008713 254.8210 105.2062 15.20349906  1609
LYNK TOWER 1            
1 52162U 22033F   22102.05727164  .00004334  00000+0  19913-3 0  9994
2 52162  97.3875 184.7059 0009336 237.6110 122.4222 15.20864130  1581
2022-033G               
1 52163U 22033G   22101.86008898  .00003332  00000+0  15376-3 0  9995
2 52163  97.3885 184.5129 0009500 236.2803 123.7528 15.20883479  1553
2022-033H               
1 52164U 22033H   22102.18800229  .00015525  00000+0  69949-3 0  9992
2 52164  97.3827 184.8285 0008820 243.9312 116.1016 15.21105308  1603
2022-033J               
1 52165U 22033J   22102.05727149  .00009253  00000+0  42067-3 0  9991
2 52165  97.3877 184.7101 0009429 242.8276 117.1998 15.20923657  1589
2022-033K               
1 52166U 22033K   22102.18823148  .00012911  00000+0  58287-3 0  9998
2 52166  97.3847 184.8311 0010375 234.9532 125.0731 15.21066338  1601
2022-033L               
1 52167U 22033L   22102.18930520  .00011054  00000+0  50277-3 0  9990
2 52167  97.3874 184.8363 0009020 241.0297 119.0035 15.20862035  1608
2022-033M               
1 52168U 22033M   22102.19033115  .00007379  00000+0  33864-3 0  9994
2 52168  97.3861 184.8311 0008579 243.9046 116.1307 15.20675526  1606
2022-033N               
1 52169U 22033N   22102.18614852  .00007233  00000+0  32604-3 0  9997
2 52169  97.3878 184.8439 0011152 240.9447 119.0672 15.21281763  1603
2022-033P               
1 52170U 22033P   22101.85722005  .00003890  00000+0  17696-3 0  9991
2 52170  97.3873 184.5165 0011057 236.7268 123.2909 15.21255282  1552
2022-033Q               
1 52171U 22033Q   22102.18523555  .00007946  00000+0  35634-3 0  9996
2 52171  97.3879 184.8433 0011595 235.7555 124.2583 15.21420452  1603
2022-033R               
1 52172U 22033R   22102.18451833  .00007998  00000+0  35757-3 0  9999
2 52172  97.3863 184.8396 0011457 230.8108 129.2111 15.21526150  1606
SHAKUNTALA              
1 52173U 22033S   22102.18323889  .00012688  00000+0  56095-3 0  9999
2 52173  97.3913 184.8543 0012784 233.8206 126.1848 15.21761697  1603
2022-033T               
1 52174U 22033T   22102.18219439  .00011516  00000+0  50746-3 0  9991
2 52174  97.3867 184.8437 0012726 228.1215 131.8936 15.21898927  1605
2022-033U               
1 52175U 22033U   22102.18200530  .00011322  00000+0  49848-3 0  9990
2 52175  97.3895 184.8515 0013111 230.4188 129.5891 15.21930003  1604
2022-033V               
1 52176U 22033V   22102.18921651  .00014744  00000+0  66755-3 0  9992
2 52176  97.3838 184.8268 0007038 235.1996 124.8578 15.20960930  1585
2022-033W               
1 52177U 22033W   22102.18964975  .00015546  00000+0  70541-3 0  9998
2 52177  97.3844 184.8298 0009891 240.6125 119.4124 15.20852632  1586
2022-033X               
1 52178U 22033X   22102.19021189  .00007249  00000+0  33256-3 0  9994
2 52178  97.3888 184.8394 0009129 246.6550 113.3726 15.20691676  1584
2022-033Y               
1 52179U 22033Y   22102.18982780  .00012553  00000+0  57133-3 0  9991
2 52179  97.3838 184.8272 0008411 244.0399 115.9970 15.20809623  1583
2022-033Z               
1 52180U 22033Z   22102.18944676  .00013471  00000+0  61149-3 0  9997
2 52180  97.3843 184.8290 0008683 243.5777 116.4568 15.20881980  1581
2022-033AA              
1 52181U 22033AA  22102.18977967  .00014210  00000+0  64570-3 0  9990
2 52181  97.3839 184.8278 0008477 245.0768 114.9587 15.20837074  1580
2022-033AB              
1 52182U 22033AB  22102.18984985  .00013381  00000+0  60866-3 0  9991
2 52182  97.3850 184.8299 0008417 243.2962 116.7412 15.20814533  1589
2022-033AC              
1 52183U 22033AC  22102.18968665  .00014428  00000+0  65521-3 0  9995
2 52183  97.3841 184.8281 0008527 244.8367 115.1985 15.20852268  1584
